QIANFAN-60              
1 62790U 25016F   25266.35424867  .00000059  00000+0  71238-4 0  9996
2 62790  88.9739 111.4013 0014258 211.1349 148.8960 13.52523660 36370
QIANFAN-61              
1 62791U 25016G   25266.30455321  .00000082  00000+0  10887-3 0  9999
2 62791  88.9807 111.5126 0013562 209.9714 150.0662 13.50971788 36382
QIANFAN-62              
1 62792U 25016H   25266.30869447  .00000071  00000+0  91515-4 0  9994
2 62792  88.9753 111.4241 0014929 210.8915 149.1360 13.50965749 36375
QIANFAN-63              
1 62793U 25016J   25266.33259435  .00000082  00000+0  11072-3 0  9999
2 62793  88.9760 111.3676 0014579 217.1529 142.8614 13.49732427 36417
QIANFAN-64              
1 62794U 25016K   25266.00459885  .00000081  00000+0  10493-3 0  9990
2 62794  88.9747 111.3867 0012822 207.8155 152.2313 13.52421057 36368
QIANFAN-65              
1 62795U 25016L   25266.29632909  .00000080  00000+0  10498-3 0  9996
2 62795  88.9742 111.3853 0012765 210.0967 149.9452 13.50969349 36380
QIANFAN-66              
1 62796U 25016M   25266.32517403  .00000066  00000+0  83354-4 0  9998
2 62796  88.9763 111.3367 0013972 205.7219 154.3238 13.50964528 36438
QIANFAN-67              
1 62797U 25016N   25266.32917168  .00000068  00000+0  86759-4 0  9995
2 62797  88.9753 111.3697 0013791 213.1707 146.8580 13.50965988 36402
QIANFAN-68              
1 62798U 25016P   25265.58037082  .00000068  00000+0  86751-4 0  9993
2 62798  88.9757 111.4892 0013945 213.1232 146.9048 13.51165728 36280
QIANFAN-69              
1 62799U 25016Q   25266.33745916  .00000069  00000+0  88677-4 0  9990
2 62799  88.9734 111.2979 0014609 212.6436 147.3813 13.50966040 36424
QIANFAN-70              
1 62800U 25016R   25266.35385619  .00000074  00000+0  95799-4 0  9994
2 62800  88.9756 111.4176 0014429 202.1505 157.9024 13.50970572 36384
QIANFAN-71              
1 62801U 25016S   25266.34982277  .00000076  00000+0  98764-4 0  9994
2 62801  88.9749 111.4025 0014438 216.4045 143.6125 13.50969739 36384
QIANFAN-72              
1 62802U 25016T   25266.35720605  .00000076  00000+0  10107-3 0  9995
2 62802  88.9740 111.4207 0017831 224.7575 135.2138 13.49485836 36377
QIANFAN-73              
1 63159U 25046A   25266.31918547  .00000229  00000+0  33654-3 0  9996
2 63159  88.9833 328.3369 0014473   5.1688 354.9610 13.50975036 36552
QIANFAN-74              
1 63160U 25046B   25266.22854435  .00000236  00000+0  34659-3 0  9997
2 63160  88.9833 328.2345 0002223 106.4891 253.6504 13.50968402 36600
QIANFAN-75              
1 63161U 25046C   25266.29037587  .00000251  00000+0  37074-3 0  9997
2 63161  88.9833 328.4605 0015659   7.7450 352.3940 13.50978385 36481
QIANFAN-76              
1 63162U 25046D   25266.36030662  .00000208  00000+0  30387-3 0  9995
2 63162  88.9833 328.4343 0013270   9.7143 350.4262 13.50972879 36500
QIANFAN-77              
1 63163U 25046E   25266.33920883  .00000568  00000+0  40490-3 0  9991
2 63163  88.9828 327.1039 0013329 339.8874  20.1776 13.96050410 37236
QIANFAN-78              
1 63164U 25046F   25266.40145774  .00000230  00000+0  33721-3 0  9993
2 63164  88.9832 328.2950 0014718  11.0437 349.1035 13.50977373 36588
QIANFAN-79              
1 63165U 25046G   25266.28198801  .00000065  00000+0  81992-4 0  9999
2 63165  88.9837 328.4116 0014336   9.9576 350.1856 13.50965945 36514
QIANFAN-80              
1 63166U 25046H   25266.29856988  .00000236  00000+0  34666-3 0  9993
2 63166  88.9833 328.1190 0013527  14.8794 345.2752 13.50966956 36678
QIANFAN-81              
1 63167U 25046J   25266.35202339  .00000263  00000+0  38949-3 0  9994
2 63167  88.9833 328.1819 0014026   2.1974 357.9237 13.50979139 36633
QIANFAN-82              
1 63168U 25046K   25266.31088390  .00000251  00000+0  37025-3 0  9991
2 63168  88.9834 328.2297 0012532  11.7704 348.3737 13.50966851 36617
QIANFAN-83              
1 63169U 25046L   25266.32550286  .00000297  00000+0  37011-3 0  9996
2 63169  88.9833 328.1623 0013384   0.3042 359.8121 13.61953639 36654
QIANFAN-84              
1 63170U 25046M   25266.33947728  .00000165  00000+0  23736-3 0  9993
2 63170  88.9834 328.3597 0015306   6.0218 354.1114 13.50980311 36546
QIANFAN-85              
1 63171U 25046N   25266.33562970  .00000249  00000+0  36766-3 0  9996
2 63171  88.9833 328.2322 0012821  10.3553 349.7860 13.50977074 36618
QIANFAN-86              
1 63172U 25046P   25266.34384575  .00000252  00000+0  37210-3 0  9990
2 63172  88.9835 328.0916 0010911  16.6888 343.4620 13.50977516 36690
QIANFAN-87              
1 63173U 25046Q   25266.31505876  .00000239  00000+0  35104-3 0  9992
2 63173  88.9830 328.2092 0011403  10.7993 349.3400 13.50973317 36621
QIANFAN-88              
1 63174U 25046R   25266.40554546  .00000242  00000+0  35655-3 0  9996
2 63174  88.9833 328.1524 0012100  18.2721 341.8863 13.50966653 36660
QIANFAN-89              
1 63175U 25046S   25266.22021572 -.00000003  00000+0 -23155-4 0  9995
2 63175  88.9833 328.3601 0015997   6.3226 353.8124 13.50967179 36537
QIANFAN-90              
1 63176U 25046T   25266.32308714  .00000243  00000+0  35800-3 0  9996
2 63176  88.9834 328.3222 0012887   6.2178 353.9130 13.50980404 36565
